[{"OBJECT_NAME":"STARLINK-35383","OBJECT_ID":"2025-218C","EPOCH":"2026-03-09T15:04:32.193696","MEAN_MOTION":15.05658147,"ECCENTRICITY":0.0002724,"INCLINATION":97.6021,"RA_OF_ASC_NODE":292.9417,"ARG_OF_PERICENTER":84.2925,"MEAN_ANOMALY":275.8613,"EPHEMERIS_TYPE":0,"CLASSIFICATION_TYPE":"U","NORAD_CAT_ID":65793,"ELEMENT_SET_NO":999,"REV_AT_EPOCH":2496,"BSTAR":0.00050948,"MEAN_MOTION_DOT":7.3e-5,"MEAN_MOTION_DDOT":0},{"OBJECT_NAME":"UNKNOWN","OBJECT_ID":"","EPOCH":"2026-03-07T07:12:28.467936","MEAN_MOTION":13.84167479,"ECCENTRICITY":0.0562172,"INCLINATION":65.7706,"RA_OF_ASC_NODE":175.5588,"ARG_OF_PERICENTER":267.1474,"MEAN_ANOMALY":86.5158,"EPHEMERIS_TYPE":0,"CLASSIFICATION_TYPE":"U","NORAD_CAT_ID":81052,"ELEMENT_SET_NO":999,"REV_AT_EPOCH":61201,"BSTAR":0.0024773,"MEAN_MOTION_DOT":9.583e-5,"MEAN_MOTION_DDOT":0}]
